[{"OBJECT_NAME":"STARLINK-2655","OBJECT_ID":"2021-040X","EPOCH":"2026-03-09T13:34:27.715584","MEAN_MOTION":15.3019658,"ECCENTRICITY":0.0001428,"INCLINATION":53.1635,"RA_OF_ASC_NODE":178.7122,"ARG_OF_PERICENTER":91.6237,"MEAN_ANOMALY":268.4927,"EPHEMERIS_TYPE":0,"CLASSIFICATION_TYPE":"U","NORAD_CAT_ID":48449,"ELEMENT_SET_NO":999,"REV_AT_EPOCH":26666,"BSTAR":-2.498e-6,"MEAN_MOTION_DOT":-4.33e-6,"MEAN_MOTION_DDOT":0},{"OBJECT_NAME":"SL-8 R\/B","OBJECT_ID":"1990-078B","EPOCH":"2026-03-09T21:52:42.731616","MEAN_MOTION":14.89068601,"ECCENTRICITY":0.03622553,"INCLINATION":82.9007,"RA_OF_ASC_NODE":251.1111,"ARG_OF_PERICENTER":13.2503,"MEAN_ANOMALY":347.792,"EPHEMERIS_TYPE":0,"CLASSIFICATION_TYPE":"U","NORAD_CAT_ID":20775,"ELEMENT_SET_NO":999,"REV_AT_EPOCH":80933,"BSTAR":0.00056464849,"MEAN_MOTION_DOT":0.0001918,"MEAN_MOTION_DDOT":0}]
